{
  "type": "FeatureCollection",
  "features": [
    {
      "type": "Feature",
      "properties": {
        "norad_id": 67010,
        "name": "STARLINK-36189",
        "group": "last-30-days",
        "lat": -67.45050659547024,
        "lon": -120.6813203685558,
        "alt_km": 302.67041877815427,
        "timestamp": "2025-12-20T16:47:35.026403+00:00",
        "meta_object_name": "STARLINK-36189",
        "meta_object_id": "2025-293H",
        "meta_epoch": "2025-12-20T12:00:02.000160",
        "meta_mean_motion": 15.91854362,
        "meta_eccentricity": 0.0003825,
        "meta_inclination": 69.9938,
        "meta_ra_of_asc_node": 301.241,
        "meta_arg_of_pericenter": 268.8334,
        "meta_mean_anomaly": 307.9748,
        "meta_ephemeris_type": 0,
        "meta_classification_type": "U",
        "meta_norad_cat_id": 67010,
        "meta_element_set_no": 999,
        "meta_rev_at_epoch": 142,
        "meta_bstar": -0.0040254,
        "meta_mean_motion_dot": -0.01322965,
        "meta_mean_motion_ddot": 0.00050593,
        "tle_line1": "1 67010U 25293H   25354.50002315 -.01322965  50593-3 -40254-2 0  9992",
        "tle_line2": "2 67010  69.9938 301.2410 0003825 268.8334 307.9748 15.91854362  1422"
      },
      "geometry": {
        "type": "Point",
        "coordinates": [
          -120.6813203685558,
          -67.45050659547024
        ]
      }
    },
    {
      "type": "Feature",
      "properties": {
        "norad_id": 67011,
        "name": "STARLINK-36167",
        "group": "last-30-days",
        "lat": -68.53231939619963,
        "lon": -127.23865427223502,
        "alt_km": 302.75348239531013,
        "timestamp": "2025-12-20T16:47:35.026412+00:00",
        "meta_object_name": "STARLINK-36167",
        "meta_object_id": "2025-293J",
        "meta_epoch": "2025-12-20T12:00:02.000160",
        "meta_mean_motion": 15.91803478,
        "meta_eccentricity": 0.0003863,
        "meta_inclination": 69.9933,
        "meta_ra_of_asc_node": 301.2435,
        "meta_arg_of_pericenter": 268.2732,
        "meta_mean_anomaly": 305.8794,
        "meta_ephemeris_type": 0,
        "meta_classification_type": "U",
        "meta_norad_cat_id": 67011,
        "meta_element_set_no": 999,
        "meta_rev_at_epoch": 136,
        "meta_bstar": -0.003963,
        "meta_mean_motion_dot": -0.01299325,
        "meta_mean_motion_ddot": 0.00048913,
        "tle_line1": "1 67011U 25293J   25354.50002315 -.01299325  48913-3 -39630-2 0  9995",
        "tle_line2": "2 67011  69.9933 301.2435 0003863 268.2732 305.8794 15.91803478  1366"
      },
      "geometry": {
        "type": "Point",
        "coordinates": [
          -127.23865427223502,
          -68.53231939619963
        ]
      }
    },
    {
      "type": "Feature",
      "properties": {
        "norad_id": 67012,
        "name": "STARLINK-36175",
        "group": "last-30-days",
        "lat": -66.39801574975584,
        "lon": -115.84659990540115,
        "alt_km": 302.51988240606534,
        "timestamp": "2025-12-20T16:47:35.026422+00:00",
        "meta_object_name": "STARLINK-36175",
        "meta_object_id": "2025-293K",
        "meta_epoch": "2025-12-20T12:00:02.000160",
        "meta_mean_motion": 15.91895375,
        "meta_eccentricity": 0.0003885,
        "meta_inclination": 69.9933,
        "meta_ra_of_asc_node": 301.2383,
        "meta_arg_of_pericenter": 270.6008,
        "meta_mean_anomaly": 308.3516,
        "meta_ephemeris_type": 0,
        "meta_classification_type": "U",
        "meta_norad_cat_id": 67012,
        "meta_element_set_no": 999,
        "meta_rev_at_epoch": 136,
        "meta_bstar": -0.0040476,
        "meta_mean_motion_dot": -0.01332995,
        "meta_mean_motion_ddot": 0.00051324,
        "tle_line1": "1 67012U 25293K   25354.50002315 -.01332995  51324-3 -40476-2 0  9997",
        "tle_line2": "2 67012  69.9933 301.2383 0003885 270.6008 308.3516 15.91895375  1363"
      },
      "geometry": {
        "type": "Point",
        "coordinates": [
          -115.84659990540115,
          -66.39801574975584
        ]
      }
    },
    {
      "type": "Feature",
      "properties": {
        "norad_id": 67013,
        "name": "STARLINK-35856",
        "group": "last-30-days",
        "lat": -64.92973659280409,
        "lon": -110.50516376767543,
        "alt_km": 302.42984776560115,
        "timestamp": "2025-12-20T16:47:35.026432+00:00",
        "meta_object_name": "STARLINK-35856",
        "meta_object_id": "2025-293L",
        "meta_epoch": "2025-12-20T12:00:02.000160",
        "meta_mean_motion": 15.91940364,
        "meta_eccentricity": 0.0003885,
        "meta_inclination": 69.9933,
        "meta_ra_of_asc_node": 301.2348,
        "meta_arg_of_pericenter": 270.0576,
        "meta_mean_anomaly": 311.514,
        "meta_ephemeris_type": 0,
        "meta_classification_type": "U",
        "meta_norad_cat_id": 67013,
        "meta_element_set_no": 999,
        "meta_rev_at_epoch": 136,
        "meta_bstar": -0.0040849,
        "meta_mean_motion_dot": -0.01348239,
        "meta_mean_motion_ddot": 0.00052436,
        "tle_line1": "1 67013U 25293L   25354.50002315 -.01348239  52436-3 -40849-2 0  9995",
        "tle_line2": "2 67013  69.9933 301.2348 0003885 270.0576 311.5140 15.91940364  1367"
      },
      "geometry": {
        "type": "Point",
        "coordinates": [
          -110.50516376767543,
          -64.92973659280409
        ]
      }
    },
    {
      "type": "Feature",
      "properties": {
        "norad_id": 67014,
        "name": "STARLINK-36207",
        "group": "last-30-days",
        "lat": -63.40144910043705,
        "lon": -106.03888532916189,
        "alt_km": 302.3698384353165,
        "timestamp": "2025-12-20T16:47:35.026444+00:00",
        "meta_object_name": "STARLINK-36207",
        "meta_object_id": "2025-293M",
        "meta_epoch": "2025-12-20T12:00:02.000160",
        "meta_mean_motion": 15.91977902,
        "meta_eccentricity": 0.0003832,
        "meta_inclination": 69.9936,
        "meta_ra_of_asc_node": 301.2321,
        "meta_arg_of_pericenter": 271.0925,
        "meta_mean_anomaly": 312.9328,
        "meta_ephemeris_type": 0,
        "meta_classification_type": "U",
        "meta_norad_cat_id": 67014,
        "meta_element_set_no": 999,
        "meta_rev_at_epoch": 142,
        "meta_bstar": -0.0041081,
        "meta_mean_motion_dot": -0.01358409,
        "meta_mean_motion_ddot": 0.00053187,
        "tle_line1": "1 67014U 25293M   25354.50002315 -.01358409  53187-3 -41081-2 0  9999",
        "tle_line2": "2 67014  69.9936 301.2321 0003832 271.0925 312.9328 15.91977902  1421"
      },
      "geometry": {
        "type": "Point",
        "coordinates": [
          -106.03888532916189,
          -63.40144910043705
        ]
      }
    },
    {
      "type": "Feature",
      "properties": {
        "norad_id": 67015,
        "name": "STARLINK-36093",
        "group": "last-30-days",
        "lat": -60.04400960961729,
        "lon": -98.56864359484918,
        "alt_km": 302.2617855620301,
        "timestamp": "2025-12-20T16:47:35.026455+00:00",
        "meta_object_name": "STARLINK-36093",
        "meta_object_id": "2025-293N",
        "meta_epoch": "2025-12-20T12:00:02.000160",
        "meta_mean_motion": 15.92055247,
        "meta_eccentricity": 0.0003817,
        "meta_inclination": 69.9933,
        "meta_ra_of_asc_node": 301.2261,
        "meta_arg_of_pericenter": 267.7237,
        "meta_mean_anomaly": 321.127,
        "meta_ephemeris_type": 0,
        "meta_classification_type": "U",
        "meta_norad_cat_id": 67015,
        "meta_element_set_no": 999,
        "meta_rev_at_epoch": 136,
        "meta_bstar": -0.004127,
        "meta_mean_motion_dot": -0.01369964,
        "meta_mean_motion_ddot": 0.00054067,
        "tle_line1": "1 67015U 25293N   25354.50002315 -.01369964  54067-3 -41270-2 0  9996",
        "tle_line2": "2 67015  69.9933 301.2261 0003817 267.7237 321.1270 15.92055247  1364"
      },
      "geometry": {
        "type": "Point",
        "coordinates": [
          -98.56864359484918,
          -60.04400960961729
        ]
      }
    },
    {
      "type": "Feature",
      "properties": {
        "norad_id": 67016,
        "name": "STARLINK-36120",
        "group": "last-30-days",
        "lat": -61.88121382265131,
        "lon": -102.34019616916405,
        "alt_km": 302.3027645169277,
        "timestamp": "2025-12-20T16:47:35.026467+00:00",
        "meta_object_name": "STARLINK-36120",
        "meta_object_id": "2025-293P",
        "meta_epoch": "2025-12-20T12:00:02.000160",
        "meta_mean_motion": 15.92016588,
        "meta_eccentricity": 0.0003855,
        "meta_inclination": 69.9934,
        "meta_ra_of_asc_node": 301.2292,
        "meta_arg_of_pericenter": 268.3897,
        "meta_mean_anomaly": 317.8899,
        "meta_ephemeris_type": 0,
        "meta_classification_type": "U",
        "meta_norad_cat_id": 67016,
        "meta_element_set_no": 999,
        "meta_rev_at_epoch": 136,
        "meta_bstar": -0.0041012,
        "meta_mean_motion_dot": -0.01358847,
        "meta_mean_motion_ddot": 0.0005324,
        "tle_line1": "1 67016U 25293P   25354.50002315 -.01358847  53240-3 -41012-2 0  9991",
        "tle_line2": "2 67016  69.9934 301.2292 0003855 268.3897 317.8899 15.92016588  1365"
      },
      "geometry": {
        "type": "Point",
        "coordinates": [
          -102.34019616916405,
          -61.88121382265131
        ]
      }
    }
  ]
}